[{"OBJECT_NAME":"GAOFEN-3 02","OBJECT_ID":"2021-109A","EPOCH":"2026-03-09T23:26:55.915584","MEAN_MOTION":14.42215794,"ECCENTRICITY":0.00015915,"INCLINATION":98.4134,"RA_OF_ASC_NODE":78.4682,"ARG_OF_PERICENTER":307.7744,"MEAN_ANOMALY":52.3302,"EPHEMERIS_TYPE":0,"CLASSIFICATION_TYPE":"U","NORAD_CAT_ID":49495,"ELEMENT_SET_NO":999,"REV_AT_EPOCH":22601,"BSTAR":5.592981e-6,"MEAN_MOTION_DOT":-2.5e-7,"MEAN_MOTION_DDOT":0},{"OBJECT_NAME":"SL-8 R\/B","OBJECT_ID":"1982-109B","EPOCH":"2026-03-09T22:45:48.565728","MEAN_MOTION":14.3862001,"ECCENTRICITY":0.00177419,"INCLINATION":73.9976,"RA_OF_ASC_NODE":253.0574,"ARG_OF_PERICENTER":18.5013,"MEAN_ANOMALY":93.3195,"EPHEMERIS_TYPE":0,"CLASSIFICATION_TYPE":"U","NORAD_CAT_ID":13649,"ELEMENT_SET_NO":999,"REV_AT_EPOCH":26940,"BSTAR":0.00013447599,"MEAN_MOTION_DOT":3.86e-6,"MEAN_MOTION_DDOT":0}]
